#aV2016  5 26  0  0  0.00000000     288 DD+AD WGS84 FIT  NGA
## 1898 345600.00000000   300.00000000 57534 0.0000000000000
+   31     1  2  3  5  6  7  8  9 10 11 12 13 14 15 16 17 18
+         19 20 21 22 23 24 25 26 27 28 29 30 31 32  0  0  0
+          0  0  0  0  0  0  0  0  0  0  0  0  0  0  0  0  0
+          0  0  0  0  0  0  0  0  0  0  0  0  0  0  0  0  0
+          0  0  0  0  0  0  0  0  0  0  0  0  0  0  0  0  0
++         2  2  2  2  2  2  2  2  2  2  2  2  2  2  2  2  2
++         2  2  2  2  2  2  2  2  2  2  2  2  2  2  0  0  0
++         0  0  0  0  0  0  0  0  0  0  0  0  0  0  0  0  0
++         0  0  0  0  0  0  0  0  0  0  0  0  0  0  0  0  0
++         0  0  0  0  0  0  0  0  0  0  0  0  0  0  0  0  0
%c cc cc ccc ccc cccc cccc cccc cccc ccccc ccccc ccccc ccccc
%c cc cc ccc ccc cccc cccc cccc cccc ccccc ccccc ccccc ccccc
%f  0.0000000  0.000000000  0.00000000000  0.000000000000000
%f  0.0000000  0.000000000  0.00000000000  0.000000000000000
%i    0    0    0    0      0      0      0      0         0
%i    0    0    0    0      0      0      0      0         0
/*      NGA, ST. LOUIS,MO.                                  
/*   EPHEMERIS COMPUTED FROM 2 DAYS OF DATA                 
/*   EPOCHA v2.4 SMOOTHER                                   
/*   G1762 IERS2010 SATAF SATAPC                            
*  2016  5 26 10 35  0.00000000
P  1 -15468.857486    466.232376  21530.566472     21.591649                    
V  1  -7698.471900 -26388.151750  -4710.598956      0.012169                    
P  2  14692.402400  19777.982263  -9977.787083    589.550930                    
V  2   1775.841493  13383.847497  27528.143390     -0.023303                    
P  3 -21227.322410  10578.804208  11968.052905    -61.397407                    
V  3   8551.613938 -12779.839619  26474.364775     -0.036259                    
P  5  13979.089044   7526.356492 -21379.279043   -117.829707                    
V  5 -17842.049552  20299.086224  -4336.170343      0.029942                    
P  6   5656.540543  25739.447290   3310.915220    195.700659                    
V  6  -3814.830530  -3191.508493  31462.146737      0.054581                    
P  7  -8195.899691  17158.677783 -18231.120007    452.356141                    
V  7  -8100.377808 -22195.671673 -17517.148253     -0.022681                    
P  8 -25975.498003  -5644.315852     62.436854    -36.573921                    
V  8    560.200703  -2644.220866 -31790.060298     -0.014802                    
P  9 -16991.755064   9411.491164 -18135.550655    136.411622                    
V  9 -22132.956753  -6504.673529  17357.177232      0.073201                    
P 10   6978.845647 -21703.473881  13591.697582    -31.222956                    
V 10  13350.236064 -11169.075770 -24790.949360     -0.087454                    
P 11 -19886.785971  -3566.749195  16703.477103   -648.288846                    
V 11 -11729.830131 -19420.607510 -17499.014954     -0.013933                    
P 12  20883.766843  -7020.086823  14540.392057    380.869546                    
V 12 -12300.866615  14212.213443  24513.697350      0.011747                    
P 13  22244.857597  12745.032565  -6891.263432    -20.438010                    
V 13  -8901.880055   -569.738259 -30434.252054     -0.025927                    
P 14  -5290.700644 -16476.762294  20455.401853    -15.914254                    
V 14  24468.611952   6629.638566  11661.600705     -0.020731                    
P 15  26507.913545   2513.061527   2435.047378   -312.548642                    
V 15   2623.775205   3915.031227 -30657.926131     -0.016448                    
P 16 -12330.547281  -8326.394396 -22137.514530    -15.035960                    
V 16  20197.404281 -19007.490496  -3743.365434      0.025605                    
P 17    108.599683  15422.576021  21973.051541   -203.870254                    
V 17 -26142.916055  -6928.618377   4888.513225     -0.001306                    
P 18  15241.594077 -21403.486006   3296.356774    519.693867                    
V 18   5446.620940    -39.220241 -30721.492759      0.040997                    
P 19  10363.583706  16205.558873  17903.154759   -525.654844                    
V 19 -22685.501198  -5703.628940  18412.184384      0.000543                    
P 20  20525.140175  -7906.943963 -15068.422829    414.565413                    
V 20  -9522.020511  16613.567537 -21860.786061      0.023371                    
P 21   5195.980534 -20204.976826 -15544.358843   -523.901831                    
V 21   9518.721656  19246.473498 -21085.729185     -0.012106                    
P 22 -19679.723648   1839.571522  18040.798436    334.172866                    
V 22  13233.643261 -18329.045960  16398.316337     -0.083210                    
P 23 -24326.376172   2460.970297 -10711.030444   -175.425965                    
V 23 -12868.906572  -5504.724211  27027.790923     -0.016258                    
P 24  16548.132189   3105.164148  20525.044672    -17.634948                    
V 24   7513.755757  25104.183358  -9635.484791     -0.005519                    
P 25  19764.309034 -17010.192467   4344.935395   -178.458024                    
V 25  -2117.688393   5803.504545  31630.768200     -0.070402                    
P 26  -3812.219679 -16806.366914 -20204.586047   -376.307122                    
V 26  18072.159512 -18241.324248  11814.286152     -0.119844                    
P 27 -21382.287783 -12031.345983 -10419.371326     96.582948                    
V 27  13241.288013    843.288784 -28069.043905      0.041118                    
P 28  -9526.511500  21077.868331  13638.475398    525.681821                    
V 28 -12839.050586  10055.513713 -25742.548776      0.026303                    
P 29  19833.765222  -5971.816671 -16590.714135    657.089065                    
V 29  19833.297503   7249.223464  21133.689260     -0.001447                    
P 30  -2272.910063  24050.125604 -10932.357754    128.270371                    
V 30  -5892.476929 -12906.867877 -27288.891266      0.029773                    
P 31  -6829.772108 -25460.568992    248.578636    267.099553                    
V 31   2750.138092   -553.742233  32225.318081     -0.018946                    
P 32  -2592.536881 -15779.617276  21216.772163    -12.372390                    
V 32  26428.225162   5170.543710   7064.684583     -0.066707                    
EOF
